{
  "type": "FeatureCollection",
  "features": [
    {
      "type": "Feature",
      "properties": {
        "norad_id": 34079,
        "name": "IRIDIUM 33 DEB",
        "group": "iridium-33-debris",
        "lat": 72.76984492768597,
        "lon": 173.6329639545977,
        "alt_km": 612.6448457273018,
        "timestamp": "2025-12-19T20:43:00.470321+00:00",
        "meta_object_name": "IRIDIUM 33 DEB",
        "meta_object_id": "1997-051CN",
        "meta_epoch": "2025-12-19T07:23:13.665984",
        "meta_mean_motion": 14.83686948,
        "meta_eccentricity": 0.00048144,
        "meta_inclination": 86.3768,
        "meta_ra_of_asc_node": 5.675,
        "meta_arg_of_pericenter": 345.2663,
        "meta_mean_anomaly": 36.9038,
        "meta_ephemeris_type": 0,
        "meta_classification_type": "U",
        "meta_norad_cat_id": 34079,
        "meta_element_set_no": 999,
        "meta_rev_at_epoch": 89075,
        "meta_bstar": 0.0011697955,
        "meta_mean_motion_dot": 9.693e-05,
        "meta_mean_motion_ddot": 0,
        "tle_line1": "1 34079U 97051CN  25353.30779706  .00009693  00000+0  11698-2 0  9995",
        "tle_line2": "2 34079  86.3768   5.6750 0004814 345.2663  36.9038 14.83686948890757"
      },
      "geometry": {
        "type": "Point",
        "coordinates": [
          173.6329639545977,
          72.76984492768597
        ]
      }
    },
    {
      "type": "Feature",
      "properties": {
        "norad_id": 34088,
        "name": "IRIDIUM 33 DEB",
        "group": "iridium-33-debris",
        "lat": 40.91510522230515,
        "lon": 30.59228377804268,
        "alt_km": 591.2337154498864,
        "timestamp": "2025-12-19T20:43:00.470332+00:00",
        "meta_object_name": "IRIDIUM 33 DEB",
        "meta_object_id": "1997-051CX",
        "meta_epoch": "2025-12-19T03:03:48.145248",
        "meta_mean_motion": 14.91662643,
        "meta_eccentricity": 0.00063639,
        "meta_inclination": 86.3843,
        "meta_ra_of_asc_node": 27.7888,
        "meta_arg_of_pericenter": 156.0805,
        "meta_mean_anomaly": 257.7392,
        "meta_ephemeris_type": 0,
        "meta_classification_type": "U",
        "meta_norad_cat_id": 34088,
        "meta_element_set_no": 999,
        "meta_rev_at_epoch": 88837,
        "meta_bstar": 0.00181826,
        "meta_mean_motion_dot": 0.00018329,
        "meta_mean_motion_ddot": 0,
        "tle_line1": "1 34088U 97051CX  25353.12764057  .00018329  00000+0  18183-2 0  9990",
        "tle_line2": "2 34088  86.3843  27.7888 0006363 156.0805 257.7392 14.91662643888371"
      },
      "geometry": {
        "type": "Point",
        "coordinates": [
          30.59228377804268,
          40.91510522230515
        ]
      }
    },
    {
      "type": "Feature",
      "properties": {
        "norad_id": 34091,
        "name": "IRIDIUM 33 DEB",
        "group": "iridium-33-debris",
        "lat": -15.155923933083878,
        "lon": 62.57810013254312,
        "alt_km": 621.5905392141503,
        "timestamp": "2025-12-19T20:43:00.470342+00:00",
        "meta_object_name": "IRIDIUM 33 DEB",
        "meta_object_id": "1997-051DA",
        "meta_epoch": "2025-12-18T04:16:47.373312",
        "meta_mean_motion": 14.8221607,
        "meta_eccentricity": 0.00338054,
        "meta_inclination": 86.3422,
        "meta_ra_of_asc_node": 64.3429,
        "meta_arg_of_pericenter": 273.6022,
        "meta_mean_anomaly": 86.1335,
        "meta_ephemeris_type": 0,
        "meta_classification_type": "U",
        "meta_norad_cat_id": 34091,
        "meta_element_set_no": 999,
        "meta_rev_at_epoch": 87947,
        "meta_bstar": 0.0037025527,
        "meta_mean_motion_dot": 0.00029931,
        "meta_mean_motion_ddot": 0,
        "tle_line1": "1 34091U 97051DA  25352.17832608  .00029931  00000+0  37026-2 0  9994",
        "tle_line2": "2 34091  86.3422  64.3429 0033805 273.6022  86.1335 14.82216070879475"
      },
      "geometry": {
        "type": "Point",
        "coordinates": [
          62.57810013254312,
          -15.155923933083878
        ]
      }
    },
    {
      "type": "Feature",
      "properties": {
        "norad_id": 34097,
        "name": "IRIDIUM 33 DEB",
        "group": "iridium-33-debris",
        "lat": 76.70120339531745,
        "lon": 161.93292639641322,
        "alt_km": 800.7572831903426,
        "timestamp": "2025-12-19T20:43:00.470353+00:00",
        "meta_object_name": "IRIDIUM 33 DEB",
        "meta_object_id": "1997-051DG",
        "meta_epoch": "2025-12-19T00:09:26.087616",
        "meta_mean_motion": 14.34825402,
        "meta_eccentricity": 0.00819041,
        "meta_inclination": 86.2,
        "meta_ra_of_asc_node": 358.6418,
        "meta_arg_of_pericenter": 341.7144,
        "meta_mean_anomaly": 18.111,
        "meta_ephemeris_type": 0,
        "meta_classification_type": "U",
        "meta_norad_cat_id": 34097,
        "meta_element_set_no": 999,
        "meta_rev_at_epoch": 87209,
        "meta_bstar": 0.0011301988,
        "meta_mean_motion_dot": 3.348e-05,
        "meta_mean_motion_ddot": 0,
        "tle_line1": "1 34097U 97051DG  25353.00655194  .00003348  00000+0  11302-2 0  9999",
        "tle_line2": "2 34097  86.2000 358.6418 0081904 341.7144  18.1110 14.34825402872093"
      },
      "geometry": {
        "type": "Point",
        "coordinates": [
          161.93292639641322,
          76.70120339531745
        ]
      }
    },
    {
      "type": "Feature",
      "properties": {
        "norad_id": 34145,
        "name": "IRIDIUM 33 DEB",
        "group": "iridium-33-debris",
        "lat": -24.011821791659766,
        "lon": 151.04534654167307,
        "alt_km": 783.3225533629675,
        "timestamp": "2025-12-19T20:43:00.470364+00:00",
        "meta_object_name": "IRIDIUM 33 DEB",
        "meta_object_id": "1997-051DY",
        "meta_epoch": "2025-12-18T08:48:48.486240",
        "meta_mean_motion": 14.42328092,
        "meta_eccentricity": 0.00557365,
        "meta_inclination": 86.2113,
        "meta_ra_of_asc_node": 330.0199,
        "meta_arg_of_pericenter": 75.968,
        "meta_mean_anomaly": 284.7708,
        "meta_ephemeris_type": 0,
        "meta_classification_type": "U",
        "meta_norad_cat_id": 34145,
        "meta_element_set_no": 999,
        "meta_rev_at_epoch": 87719,
        "meta_bstar": 0.00092678493,
        "meta_mean_motion_dot": 3.137e-05,
        "meta_mean_motion_ddot": 0,
        "tle_line1": "1 34145U 97051DY  25352.36722785  .00003137  00000+0  92678-3 0  9994",
        "tle_line2": "2 34145  86.2113 330.0199 0055736  75.9680 284.7708 14.42328092877199"
      },
      "geometry": {
        "type": "Point",
        "coordinates": [
          151.04534654167307,
          -24.011821791659766
        ]
      }
    },
    {
      "type": "Feature",
      "properties": {
        "norad_id": 34146,
        "name": "IRIDIUM 33 DEB",
        "group": "iridium-33-debris",
        "lat": 14.060492701478971,
        "lon": -12.413544428539158,
        "alt_km": 748.2047219901997,
        "timestamp": "2025-12-19T20:43:00.470375+00:00",
        "meta_object_name": "IRIDIUM 33 DEB",
        "meta_object_id": "1997-051DZ",
        "meta_epoch": "2025-12-18T23:22:46.077024",
        "meta_mean_motion": 14.49088603,
        "meta_eccentricity": 0.00260878,
        "meta_inclination": 86.2829,
        "meta_ra_of_asc_node": 347.0462,
        "meta_arg_of_pericenter": 199.8363,
        "meta_mean_anomaly": 219.3623,
        "meta_ephemeris_type": 0,
        "meta_classification_type": "U",
        "meta_norad_cat_id": 34146,
        "meta_element_set_no": 999,
        "meta_rev_at_epoch": 88197,
        "meta_bstar": 0.00067792412,
        "meta_mean_motion_dot": 2.605e-05,
        "meta_mean_motion_ddot": 0,
        "tle_line1": "1 34146U 97051DZ  25352.97414441  .00002605  00000+0  67792-3 0  9997",
        "tle_line2": "2 34146  86.2829 347.0462 0026087 199.8363 219.3623 14.49088603881975"
      },
      "geometry": {
        "type": "Point",
        "coordinates": [
          -12.413544428539158,
          14.060492701478971
        ]
      }
    },
    {
      "type": "Feature",
      "properties": {
        "norad_id": 34159,
        "name": "IRIDIUM 33 DEB",
        "group": "iridium-33-debris",
        "lat": 1.8347734189029412,
        "lon": -134.91300491247435,
        "alt_km": 764.5043781107152,
        "timestamp": "2025-12-19T20:43:00.470389+00:00",
        "meta_object_name": "IRIDIUM 33 DEB",
        "meta_object_id": "1997-051EN",
        "meta_epoch": "2025-12-19T03:11:39.945408",
        "meta_mean_motion": 14.38508712,
        "meta_eccentricity": 0.00259924,
        "meta_inclination": 86.3502,
        "meta_ra_of_asc_node": 45.5154,
        "meta_arg_of_pericenter": 265.2251,
        "meta_mean_anomaly": 94.5979,
        "meta_ephemeris_type": 0,
        "meta_classification_type": "U",
        "meta_norad_cat_id": 34159,
        "meta_element_set_no": 999,
        "meta_rev_at_epoch": 88051,
        "meta_bstar": 0.00029175087,
        "meta_mean_motion_dot": 9.14e-06,
        "meta_mean_motion_ddot": 0,
        "tle_line1": "1 34159U 97051EN  25353.13310122  .00000914  00000+0  29175-3 0  9995",
        "tle_line2": "2 34159  86.3502  45.5154 0025992 265.2251  94.5979 14.38508712880516"
      },
      "geometry": {
        "type": "Point",
        "coordinates": [
          -134.91300491247435,
          1.8347734189029412
        ]
      }
    }
  ]
}